SL-3 R/B                
1 19046U 88032B   17227.87940295  .00001038  00000-0  82095-4 0  9994
2 19046  97.5226 273.0511 0037336 129.8814 230.5704 15.02244771581319
SL-16 R/B               
1 19120U 88039B   17228.21554385 -.00000161  00000-0 -53978-4 0  9990
2 19120  71.0123 198.0851 0019725  96.9923 263.3446 14.19167590514903
COSMOS 1953             
1 19210U 88050A   17227.85486143  .00000655  00000-0  43660-4 0  9991
2 19210  82.5202 335.5337 0014454  60.1642 300.1019 15.05317343565686
SL-8 R/B                
1 19257U 88053B   17227.86322339  .00000029  00000-0  18600-4 0  9993
2 19257  74.0489 106.8367 0020722 340.1521  93.4908 14.37363410527063
COSMOS 1975             
1 19573U 88093A   17227.74228048 -.00000131  00000-0 -11534-4 0  9992
2 19573  82.5202 287.8622 0016148  96.4919 263.8147 15.04210644568769
SL-14 R/B               
1 19574U 88093B   17228.19324965  .00000072  00000-0  59538-5 0  9997
2 19574  82.5305  88.9731 0020125 279.6361 220.1297 14.83226512558343
SL-16 R/B               
1 19650U 88102B   17228.20659050 -.00000220  00000-0 -87662-4 0  9996
2 19650  70.9977 248.8925 0011874  91.5060 268.7423 14.15760981484484
INTERCOSMOS 24          
1 20261U 89080A   17227.92549721  .00000075  00000-0  20976-4 0  9994
2 20261  82.5971 331.2464 1203638 319.0481  32.5969 12.55890464273467
SL-14 R/B               
1 20262U 89080C   17227.86995478  .00000079  00000-0  14078-4 0  9992
2 20262  82.5950  17.8578 1237989 120.4981 252.4223 12.48868904269178
DELTA 1 R/B             
1 20323U 89089B   17227.81672835  .00000020  00000-0  14633-4 0  9996
2 20323  97.1118 164.2731 0070282 252.6971 106.6528 14.48207953463356
DELTA 2 R/B(1)          
1 20453U 90008B   17227.49185698  .00001530  00000-0  89163-4 0  9990
2 20453  35.6254 241.8547 0289531 301.4218  55.8485 14.83297729457013
COSMOS 2058             
1 20465U 90010A   17228.02124541  .00000254  00000-0  19363-4 0  9993
2 20465  82.4902 190.3272 0017297  92.8728 267.4474 14.97540190494292
SL-14 R/B               
1 20466U 90010B   17227.81856355  .00000046  00000-0  28459-5 0  9991
2 20466  82.5054 316.8114 0021576 139.5770 220.7052 14.81288245465265
SL-14 R/B               
1 20511U 90018B   17227.68672919  .00000057  00000-0  45061-5 0  9997
2 20511  82.5209 258.6981 0015934 278.8395 209.1913 14.79946817459762
HST                     
1 20580U 90037B   17228.54609448  .00000490  00000-0  19210-4 0  9994
2 20580  28.4704 328.6695 0002931 100.7947  10.4726 15.08815989299402
SL-16 R/B               
1 20625U 90046B   17227.88856336  .00000150  00000-0  10263-3 0  9991
2 20625  71.0005  23.8365 0013931   7.9304 352.2036 14.14622303406026
COSMOS 2084             
1 20663U 90055A   17227.89345661  .00000119  00000-0  27798-4 0  9995
2 20663  62.7926  28.8434 0140249  95.8976 265.8123 14.91619136468707
SL-6 R/B(2)             
1 20666U 90055D   17228.47728342  .00000006  00000-0  18639-4 0  9993
2 20666  62.7847 305.5314 0127643 115.2076 246.2316 14.91964693470177
SL-8 R/B                
1 20775U 90078B   17227.82285136  .00003502  00000-0  17309-3 0  9992
2 20775  82.9309 359.2969 0588246 158.3919 204.3254 14.30868091357304
SL-8 R/B                
1 21088U 91006B   17227.86895569  .00000045  00000-0  29520-4 0  9991
2 21088  82.9454 335.8679 0023311 150.4258 321.8686 13.77064779333812
OKEAN-3                 
1 21397U 91039A   17227.72576158  .00000199  00000-0  16781-4 0  9990
2 21397  82.5201  81.8623 0019029  41.9662 318.3012 14.92512519418661
COSMOS 2151             
1 21422U 91042A   17227.89454904  .00000187  00000-0  15924-4 0  9990
2 21422  82.5011 189.6289 0015949  94.5123 265.7919 14.91843656396324
SL-14 R/B               
1 21423U 91042B   17227.70476560  .00000039  00000-0  21372-5 0  9994
2 21423  82.4921 265.7957 0018945  58.4121 301.8938 14.79699133390342
ERS-1                   
1 21574U 91050A   17227.84344496  .00000039  00000-0  27231-4 0  9996
2 21574  98.4631 174.0657 0033743 135.2273 225.1646 14.37598651366173
ARIANE 40 R/B           
1 21610U 91050F   17228.17670021 -.00000024  00000-0  64990-5 0  9999
2 21610  98.5998 285.0875 0004304 116.7386 306.4803 14.40803287368758
INTERCOSMOS 25          
1 21819U 91086A   17227.75511800  .00000717  00000-0  14106-3 0  9991
2 21819  82.5658  27.1983 1522810 320.1858  29.6563 12.04583538119453
SL-14 R/B               
1 21820U 91086B   17227.79290977  .00000158  00000-0  25359-4 0  9998
2 21820  82.5577  83.3204 1577095 150.4088 219.6495 11.93317875113892
SL-8 R/B                
1 21876U 92008B   17228.21139088 -.00000030  00000-0 -46156-4 0  9996
2 21876  82.9235  72.6016 0033816 225.3247 272.0137 13.75608705279634
SL-8 R/B                
1 21938U 92020B   17227.87763095  .00000012  00000-0 -33166-5 0  9998
2 21938  82.9324 316.1484 0029718  28.2049 109.5351 13.75259075271190
SL-16 R/B               
1 22220U 92076B   17227.86980699  .00000020  00000-0  34064-4 0  9999
2 22220  71.0005 293.6218 0013114 192.1956 281.0940 14.16419801278890
SL-16 R/B               
1 22285U 92093B   17227.89901510 -.00000276  00000-0 -11806-3 0  9990
2 22285  71.0214  87.0230 0003543   2.2266 357.8871 14.15013764270706
COSMOS 2228             
1 22286U 92094A   17228.17935906  .00000157  00000-0  14539-4 0  9993
2 22286  82.5233 317.5387 0018986 283.3853  76.5248 14.87686447331412
SL-16 R/B               
1 22566U 93016B   17228.22685404  .00000084  00000-0  67972-4 0  9998
2 22566  71.0086 300.8990 0009070  31.0762 329.0895 14.14952596259760
COSMOS 2242             
1 22626U 93024A   17227.92947273  .00000156  00000-0  14396-4 0  9997
2 22626  82.5243 345.4940 0017515 283.5511  76.3755 14.87683941315033
SL-16 R/B               
1 22803U 93059B   17227.88592257  .00000185  00000-0  11603-3 0  9994
2 22803  70.9910 123.6413 0019274 292.1409  67.7669 14.16777390236482
ARIANE 40 R/B           
1 22830U 93061H   17227.90844182 -.00000062  00000-0 -59677-5 0  9998
2 22830  98.8833 244.6733 0011909 111.4711 310.1445 14.31411152246532
COSMOS 2278             
1 23087U 94023A   17227.63747590  .00000201  00000-0  13099-3 0  9996
2 23087  71.0501 234.7241 0007590 133.4127 226.7629 14.13743701202897
SL-16 R/B               
1 23088U 94023B   17228.37632747 -.00000259  00000-0 -10999-3 0  9997
2 23088  71.0010 155.7287 0004003 330.1534  29.9360 14.14659656204050
SL-16 R/B               
1 23343U 94074B   17227.70817633 -.00000037  00000-0  23583-5 0  9990
2 23343  98.1487 265.3714 0005755 235.9890 235.9883 14.76705032225406
SL-16 R/B               
1 23405U 94077B   17228.14558243  .00000196  00000-0  12572-3 0  9999
2 23405  70.9830  89.3375 0004474 249.0406 111.0238 14.15200463173993
ERS-2                   
1 23560U 95021A   17228.43652368  .00000935  00000-0  46364-4 0  9994
2 23560  98.5582 228.8912 0005090  98.3296 261.8513 15.20807813184541
ARIANE 40+ R/B          
1 23561U 95021B   17228.47510691  .00000036  00000-0  27280-4 0  9999
2 23561  98.7950 231.0622 0008153  82.0698  34.8489 14.37825160169912
SL-16 R/B               
1 23705U 95058B   17228.18165489 -.00000127  00000-0 -40882-4 0  9994
2 23705  71.0198 263.1642 0013725 215.6356 144.3851 14.15103978125671
SL-16 R/B               
1 24298U 96051B   17228.41749706 -.00000091  00000-0 -22896-4 0  9997
2 24298  70.8502 295.1814 0013264  98.1094 262.1531 14.12495719 80322
ORBVIEW 2 (SEASTAR)     
1 24883U 97037A   17227.87010061  .00000039  00000-0  30002-4 0  9994
2 24883  98.5455 335.7413 0001219 304.2608  55.8461 14.33402391 60459
SL-16 R/B               
1 25400U 98043G   17227.95043848 -.00000016  00000-0  10933-4 0  9993
2 25400  98.4922 174.2756 0010869 117.6712 242.5572 14.25415380993582
SL-16 R/B               
1 25407U 98045B   17228.20730131 -.00000241  00000-0 -98222-4 0  9997
2 25407  71.0107 275.3033 0005641 125.2140 234.9512 14.15763808984673
ISS (ZARYA)             
1 25544U 98067A   17228.55752677  .00001276  00000-0  26514-4 0  9992
2 25544  51.6422  97.3684 0005548 144.2509 297.9537 15.54157175 71142
SL-8 R/B                
1 25723U 99022C   17228.39381984  .00005009  00000-0  80523-4 0  9992
2 25723  48.4152 206.2357 0010640 324.1057  35.9172 15.54729147 15865
CZ-4B R/B               
1 25732U 99025C   17228.46579622 -.00000030  00000-0  76730-5 0  9997
2 25732  98.9936 230.9491 0036346 280.2198 196.5329 14.17634705945174
OKEAN-O                 
1 25860U 99039A   17227.91452658  .00000047  00000-0  14329-4 0  9994
2 25860  98.1907 213.6209 0000994  68.4130 291.7185 14.76487903972543
SL-16 R/B               
1 25861U 99039B   17227.93360017  .00000022  00000-0  10449-4 0  9996
2 25861  98.1107 199.6669 0014397 247.6872 173.7779 14.78422276974493
TERRA                   
1 25994U 99068A   17228.22229196  .00000154  00000-0  44318-4 0  9998
2 25994  98.2043 302.4011 0000727  88.1328 271.9944 14.57107840939413
ENVISAT                 
1 27386U 02009A   17228.36971977 -.00000021  00000-0  67562-5 0  9991
2 27386  98.2259 271.1194 0001325  85.8688 274.2652 14.37900600809726
IDEFIX & ARIANE 42P R/B 
1 27422U 02021B   17227.87537734 -.00000042  00000-0 -65507-6 0  9992
2 27422  98.2326 224.8605 0013488  62.0434 298.2112 14.29255388797093
AQUA                    
1 27424U 02022A   17227.91170381  .00000076  00000-0  27001-4 0  9991
2 27424  98.2067 168.3196 0000693 358.0067  74.7904 14.57114150812926
CZ-4B R/B               
1 27432U 02024C   17227.96270619 -.00000004  00000-0  21439-4 0  9993
2 27432  98.9930 201.8891 0049718 222.4831 204.8171 14.14047587787240
MIDORI II (ADEOS-II)    
1 27597U 02056A   17227.91973724  .00000044  00000-0  34900-4 0  9992
2 27597  98.3746 194.9613 0001846 114.0280 246.1095 14.27297831763947
H-2A R/B                
1 27601U 02056E   17227.81312876 -.00000002  00000-0  14280-4 0  9996
2 27601  98.3720 293.5366 0073318 118.3219 352.5110 14.31792160766345
